H-2A R/B                
1 28932U 06002B   26202.39097030  .00007090  00000+0  33592-3 0  9995
2 28932  98.2604   1.3328 0051109 145.1646 215.2950 15.18509525114714
RESURS-DK 1             
1 29228U 06021A   26202.53978259  .00001330  00000+0  80555-4 0  9995
2 29228  69.9299 250.6183 0007481 264.3196  95.7117 15.13334713107778
CZ-4B R/B               
1 29507U 06046C   26202.59836822  .00003789  00000+0  18712-3 0  9992
2 29507  97.5434 247.1002 0033205 160.1248 200.1288 15.18015616 80359
CZ-2C R/B               
1 31114U 07010B   26202.57965434  .00000055  00000+0  44531-4 0  9993
2 31114  98.4120 309.2526 0057778 264.8172  94.6410 14.20282954998723
COSMO-SKYMED 1          
1 31598U 07023A   26202.62118812  .00002298  00000+0  20364-3 0  9997
2 31598  97.8855  34.7692 0001812  95.0649 265.0780 14.97244419 34949
COSMOS 2428             
1 31792U 07029A   26202.62124984  .00000327  00000+0  20107-3 0  9992
2 31792  70.9382 282.1802 0007306  68.5164 291.6735 14.12938981983012
SL-16 R/B               
1 31793U 07029B   26202.33076899  .00000316  00000+0  18825-3 0  9994
2 31793  70.9741 251.4549 0001913 259.1641 175.3894 14.14855578984270
KORONAS-FOTON           
1 33504U 09003A   26202.31649698  .00010277  00000+0  20656-3 0  9993
2 33504  82.4306 136.6408 0011602  43.0111 317.2042 15.46400017966376
CZ-2C R/B               
1 37731U 11030B   26202.36977449  .00000627  00000+0  85093-4 0  9990
2 37731  97.8672 157.1450 0050666 275.4955 244.4244 14.81539792809881
H-2A R/B                
1 38341U 12025E   26202.40699128  .00001450  00000+0  13378-3 0  9994
2 38341  98.4850 180.3819 0042727 233.9351 125.7906 14.95850461768209
SHIJIAN-16 (SJ-16)      
1 39358U 13057A   26202.62353819  .00001002  00000+0  99757-4 0  9996
2 39358  74.9734 291.4596 0015525 149.2185 210.9917 14.92682853691483
SL-4 R/B                
1 39679U 14021B   26202.53518427  .00008771  00000+0  18074-3 0  9994
2 39679  51.6069  42.4191 0089349 231.8473 127.4437 15.42569896676917
ALOS-2                  
1 39766U 14029A   26202.63192819  .00000703  00000+0  10106-3 0  9998
2 39766  97.9230 299.3037 0001563  97.2548 262.8841 14.79469676656676
YAOGAN-29               
1 41038U 15069A   26202.58622302  .00000878  00000+0  11437-3 0  9998
2 41038  98.0022 231.2717 0000127  49.1787 310.9437 14.83112090575720
ASTRO-H (HITOMI)        
1 41337U 16012A   26202.39435129  .00001633  00000+0  90606-4 0  9993
2 41337  30.9973 213.2430 0009675 237.4887 122.4816 15.10649010572467
HXMT (HUIYAN)           
1 42758U 17034A   26202.59956554  .00003797  00000+0  18886-3 0  9990
2 42758  43.0152 351.3865 0031433   1.1532 358.9384 15.18725137502894
SAOCOM 1A               
1 43641U 18076A   26202.63396039  .00000208  00000+0  32709-4 0  9995
2 43641  97.8896  28.8821 0001491  87.1070 273.0314 14.82150618421209
H-2A R/B                
1 43682U 18084L   26202.63026152  .00019242  00000+0  38842-3 0  9996
2 43682  98.8522  89.0759 0020240 276.1846  83.7093 15.46369189426441
SAOCOM 1B               
1 46265U 20059A   26202.59765480 -.00000102  00000+0 -62406-5 0  9992
2 46265  97.8900  27.9429 0001467  87.5219 272.6163 14.82143926318583
CSS (TIANHE)            
1 48274U 21035A   26202.43210246  .00010973  00000+0  14512-3 0  9995
2 48274  41.4683 114.0267 0001746 306.5318  53.5359 15.58235366298517
COSMOS 2550             
1 48865U 21056A   26202.64952795  .00004463  00000+0  14122-3 0  9993
2 48865  67.1442 355.6582 0008558 269.3733  90.6440 15.33870767284004
CZ-2C R/B               
1 52794U 22058K   26202.44368670  .00034341  00000+0  34931-3 0  9991
2 52794  50.1861 344.9441 0030000  48.7438 311.6114 15.64210793231007
CZ-2C R/B               
1 54039U 22132E   26201.98283030  .00052171  00000+0  34286-3 0  9996
2 54039  97.2891 210.6196 0008520 314.1312  45.9252 15.75518474211260
GSLV R/B                
1 54149U 22138AN  26202.26815205  .00001868  00000+0  15748-3 0  9990
2 54149  87.3816 121.5401 0022802  31.8982 328.3625 14.97402183203910
XRISM                   
1 57800U 23137A   26202.50494040  .00003449  00000+0  18667-3 0  9994
2 57800  31.0014 137.2572 0007849 308.9037  51.0901 15.12700465158063
ACS3                    
1 59588U 24077B   26201.77571468  .00004880  00000+0  33665-2 0  9995
2 59588  97.1749 113.1235 0129798  30.8780 329.9939 13.95529671112727
SPACEMOBILE-003         
1 61045U 24163A   26201.99683206  .00002028  00000+0  10564-3 0  9996
2 61045  52.9677 153.9638 0004157 213.3860 146.6872 15.20726769102911
SPACEMOBILE-005         
1 61046U 24163B   26202.57178825 -.00003521  00000+0 -14344-3 0  9999
2 61046  52.9742 151.2755 0008550 213.5798 146.4656 15.20673022102998
SPACEMOBILE-001         
1 61047U 24163C   26201.25568385 -.00000135  00000+0  86599-5 0  9998
2 61047  52.9710 157.0335 0006953 209.4162 150.6442 15.20700764102798
SPACEMOBILE-002         
1 61048U 24163D   26202.15995894  .00014941  00000+0  68857-3 0  9992
2 61048  52.9778 152.9178 0004354 211.0455 149.0283 15.20486096102939
