OBJECT_NAME,OBJECT_ID,EPOCH,MEAN_MOTION,ECCENTRICITY,INCLINATION,RA_OF_ASC_NODE,ARG_OF_PERICENTER,MEAN_ANOMALY,EPHEMERIS_TYPE,CLASSIFICATION_TYPE,NORAD_CAT_ID,ELEMENT_SET_NO,REV_AT_EPOCH,BSTAR,MEAN_MOTION_DOT,MEAN_MOTION_DDOT
H-2A R/B,2006-002B,2026-07-21T09:22:59.833920,15.18509525,.00511097,98.2604,1.3328,145.1646,215.2950,0,U,28932,999,11471,.33592221E-3,.709E-4,0
RESURS-DK 1,2006-021A,2026-07-21T12:57:17.215776,15.13334713,.00074818,69.9299,250.6183,264.3196,95.7117,0,U,29228,999,10777,.80555332E-4,.133E-4,0
CZ-4B R/B,2006-046C,2026-07-21T14:21:39.014208,15.18015616,.00332056,97.5434,247.1002,160.1248,200.1288,0,U,29507,999,8035,.1871169E-3,.3789E-4,0
CZ-2C R/B,2007-010B,2026-07-21T13:54:42.134976,14.20282954,.00577785,98.4120,309.2526,264.8172,94.6410,0,U,31114,999,99872,.44531006E-4,.55E-6,0
COSMO-SKYMED 1,2007-023A,2026-07-21T14:54:30.653568,14.97244419,.00018127,97.8855,34.7692,95.0649,265.0780,0,U,31598,999,3494,.20363772E-3,.2298E-4,0
COSMOS 2428,2007-029A,2026-07-21T14:54:35.986176,14.12938981,.00073068,70.9382,282.1802,68.5164,291.6735,0,U,31792,999,98301,.20106628E-3,.327E-5,0
SL-16 R/B,2007-029B,2026-07-21T07:56:18.440736,14.14855578,.00019137,70.9741,251.4549,259.1641,175.3894,0,U,31793,999,98427,.1882486E-3,.316E-5,0
KORONAS-FOTON,2009-003A,2026-07-21T07:35:45.339072,15.46400017,.00116027,82.4306,136.6408,43.0111,317.2042,0,U,33504,999,96637,.2065576E-3,.10277E-3,0
CZ-2C R/B,2011-030B,2026-07-21T08:52:28.515936,14.81539792,.00506664,97.8672,157.1450,275.4955,244.4244,0,U,37731,999,80988,.85092645E-4,.627E-5,0
H-2A R/B,2012-025E,2026-07-21T09:46:04.046592,14.95850461,.00427279,98.4850,180.3819,233.9351,125.7906,0,U,38341,999,76820,.13378043E-3,.145E-4,0
SHIJIAN-16 (SJ-16),2013-057A,2026-07-21T14:57:53.699616,14.92682853,.00155256,74.9734,291.4596,149.2185,210.9917,0,U,39358,999,69148,.99757456E-4,.1002E-4,0
SL-4 R/B,2014-021B,2026-07-21T12:50:39.920928,15.42569896,.00893496,51.6069,42.4191,231.8473,127.4437,0,U,39679,999,67691,.18073945E-3,.8771E-4,0
ALOS-2,2014-029A,2026-07-21T15:09:58.595616,14.79469676,.0001563,97.9230,299.3037,97.2548,262.8841,0,U,39766,999,65667,.10106E-3,.703E-5,0
YAOGAN-29,2015-069A,2026-07-21T14:04:09.668928,14.83112090,.00001279,98.0022,231.2717,49.1787,310.9437,0,U,41038,999,57572,.11436526E-3,.878E-5,0
ASTRO-H (HITOMI),2016-012A,2026-07-21T09:27:51.951456,15.10649010,.00096752,30.9973,213.2430,237.4887,122.4816,0,U,41337,999,57246,.90605959E-4,.1633E-4,0
HXMT (HUIYAN),2017-034A,2026-07-21T14:23:22.462656,15.18725137,.00314335,43.0152,351.3865,1.1532,358.9384,0,U,42758,999,50289,.18885536E-3,.3797E-4,0
SAOCOM 1A,2018-076A,2026-07-21T15:12:54.177696,14.82150618,.00014911,97.8896,28.8821,87.1070,273.0314,0,U,43641,999,42120,.3270911E-4,.208E-5,0
H-2A R/B,2018-084L,2026-07-21T15:07:34.595328,15.46369189,.00202403,98.8522,89.0759,276.1846,83.7093,0,U,43682,999,42644,.38842261E-3,.19242E-3,0
SAOCOM 1B,2020-059A,2026-07-21T14:20:37.374720,14.82143926,.00014676,97.8900,27.9429,87.5219,272.6163,0,U,46265,999,31858,-.6240557E-5,-.102E-5,0
CSS (TIANHE),2021-035A,2026-07-21T10:22:13.652544,15.58235366,.00017469,41.4683,114.0267,306.5318,53.5359,0,U,48274,999,29851,.14511777E-3,.10973E-3,0
COSMOS 2550,2021-056A,2026-07-21T15:35:19.214880,15.33870767,.00085587,67.1442,355.6582,269.3733,90.6440,0,U,48865,999,28400,.14121595E-3,.4463E-4,0
CZ-2C R/B,2022-058K,2026-07-21T10:38:54.530880,15.64210793,.00300008,50.1861,344.9441,48.7438,311.6114,0,U,52794,999,23100,.34931362E-3,.34341E-3,0
CZ-2C R/B,2022-132E,2026-07-20T23:35:16.537920,15.75518474,.000852,97.2891,210.6196,314.1312,45.9252,0,U,54039,999,21126,.34286433E-3,.52171E-3,0
GSLV R/B,2022-138AN,2026-07-21T06:26:08.337120,14.97402183,.00228025,87.3816,121.5401,31.8982,328.3625,0,U,54149,999,20391,.15747816E-3,.1868E-4,0
XRISM,2023-137A,2026-07-21T12:07:06.850560,15.12700465,.00078491,31.0014,137.2572,308.9037,51.0901,0,U,57800,999,15806,.18666993E-3,.3449E-4,0
ACS3,2024-077B,2026-07-20T18:37:01.748352,13.95529671,.01297982,97.1749,113.1235,30.8780,329.9939,0,U,59588,999,11272,.33665449E-2,.488E-4,0
SPACEMOBILE-003,2024-163A,2026-07-20T23:55:26.289984,15.20726769,.00041577,52.9677,153.9638,213.3860,146.6872,0,U,61045,999,10291,.10564199E-3,.2028E-4,0
SPACEMOBILE-005,2024-163B,2026-07-21T13:43:22.504800,15.20673022,.00085506,52.9742,151.2755,213.5798,146.4656,0,U,61046,999,10299,-.14344349E-3,-.3521E-4,0
SPACEMOBILE-001,2024-163C,2026-07-20T06:08:11.084640,15.20700764,.00069537,52.9710,157.0335,209.4162,150.6442,0,U,61047,999,10279,.8659876E-5,-.135E-5,0
SPACEMOBILE-002,2024-163D,2026-07-21T03:50:20.452416,15.20486096,.00043548,52.9778,152.9178,211.0455,149.0283,0,U,61048,999,10293,.68857266E-3,.14941E-3,0
